[
  {
    "OBJECT_NAME": "TRANSPORTER-16 OBJECT BS",
    "OBJECT_ID": "2026-067BS",
    "EPOCH": "2026-04-17T20:53:08.824992",
    "MEAN_MOTION": 14.92550236,
    "ECCENTRICITY": 0.00054284,
    "INCLINATION": 97.7587,
    "RA_OF_ASC_NODE": 67.1027,
    "ARG_OF_PERICENTER": 103.6234,
    "MEAN_ANOMALY": 256.5591,
    "EPHEMERIS_TYPE": 0,
    "CLASSIFICATION_TYPE": "U",
    "NORAD_CAT_ID": 68480,
    "ELEMENT_SET_NO": 999,
    "REV_AT_EPOCH": 273,
    "BSTAR": 0.00018877023,
    "MEAN_MOTION_DOT": 1.884e-05,
    "MEAN_MOTION_DDOT": 0
  },
  {
    "OBJECT_NAME": "TORO3",
    "OBJECT_ID": "2026-067BT",
    "EPOCH": "2026-04-17T19:26:26.602368",
    "MEAN_MOTION": 14.91971431,
    "ECCENTRICITY": 0.00037476,
    "INCLINATION": 97.7625,
    "RA_OF_ASC_NODE": 67.034,
    "ARG_OF_PERICENTER": 131.3158,
    "MEAN_ANOMALY": 228.8384,
    "EPHEMERIS_TYPE": 0,
    "CLASSIFICATION_TYPE": "U",
    "NORAD_CAT_ID": 68481,
    "ELEMENT_SET_NO": 999,
    "REV_AT_EPOCH": 272,
    "BSTAR": 0.00011461708,
    "MEAN_MOTION_DOT": 1.105e-05,
    "MEAN_MOTION_DDOT": 0
  },
  {
    "OBJECT_NAME": "TRANSPORTER-16 OBJECT BU",
    "OBJECT_ID": "2026-067BU",
    "EPOCH": "2026-04-17T20:53:09.746880",
    "MEAN_MOTION": 14.92548157,
    "ECCENTRICITY": 0.0005085,
    "INCLINATION": 97.7533,
    "RA_OF_ASC_NODE": 67.0943,
    "ARG_OF_PERICENTER": 89.9684,
    "MEAN_ANOMALY": 270.2118,
    "EPHEMERIS_TYPE": 0,
    "CLASSIFICATION_TYPE": "U",
    "NORAD_CAT_ID": 68482,
    "ELEMENT_SET_NO": 999,
    "REV_AT_EPOCH": 273,
    "BSTAR": 0.0001798029,
    "MEAN_MOTION_DOT": 1.792e-05,
    "MEAN_MOTION_DDOT": 0
  },
  {
    "OBJECT_NAME": "TRANSPORTER-16 OBJECT BV",
    "OBJECT_ID": "2026-067BV",
    "EPOCH": "2026-04-17T14:31:20.081856",
    "MEAN_MOTION": 14.9229024,
    "ECCENTRICITY": 0.00046273,
    "INCLINATION": 97.7605,
    "RA_OF_ASC_NODE": 66.8374,
    "ARG_OF_PERICENTER": 114.6887,
    "MEAN_ANOMALY": 245.4814,
    "EPHEMERIS_TYPE": 0,
    "CLASSIFICATION_TYPE": "U",
    "NORAD_CAT_ID": 68483,
    "ELEMENT_SET_NO": 999,
    "REV_AT_EPOCH": 269,
    "BSTAR": 8.2056214e-05,
    "MEAN_MOTION_DOT": 7.82e-06,
    "MEAN_MOTION_DDOT": 0
  },
  {
    "OBJECT_NAME": "TRANSPORTER-16 OBJECT BW",
    "OBJECT_ID": "2026-067BW",
    "EPOCH": "2026-04-17T21:05:35.807424",
    "MEAN_MOTION": 14.91826575,
    "ECCENTRICITY": 0.00026103,
    "INCLINATION": 97.7577,
    "RA_OF_ASC_NODE": 67.0904,
    "ARG_OF_PERICENTER": 125.1564,
    "MEAN_ANOMALY": 234.9899,
    "EPHEMERIS_TYPE": 0,
    "CLASSIFICATION_TYPE": "U",
    "NORAD_CAT_ID": 68484,
    "ELEMENT_SET_NO": 999,
    "REV_AT_EPOCH": 273,
    "BSTAR": 0.00016913787,
    "MEAN_MOTION_DOT": 1.651e-05,
    "MEAN_MOTION_DDOT": 0
  },
  {
    "OBJECT_NAME": "TRANSPORTER-16 OBJECT BX",
    "OBJECT_ID": "2026-067BX",
    "EPOCH": "2026-04-17T19:27:33.358464",
    "MEAN_MOTION": 14.9198071,
    "ECCENTRICITY": 0.0002545,
    "INCLINATION": 97.7541,
    "RA_OF_ASC_NODE": 67.0191,
    "ARG_OF_PERICENTER": 117.8583,
    "MEAN_ANOMALY": 242.2894,
    "EPHEMERIS_TYPE": 0,
    "CLASSIFICATION_TYPE": "U",
    "NORAD_CAT_ID": 68485,
    "ELEMENT_SET_NO": 999,
    "REV_AT_EPOCH": 272,
    "BSTAR": 0.00044540951,
    "MEAN_MOTION_DOT": 4.458e-05,
    "MEAN_MOTION_DDOT": 0
  },
  {
    "OBJECT_NAME": "TRANSPORTER-16 OBJECT BY",
    "OBJECT_ID": "2026-067BY",
    "EPOCH": "2026-04-17T21:06:29.074752",
    "MEAN_MOTION": 14.91773743,
    "ECCENTRICITY": 0.00021199,
    "INCLINATION": 97.754,
    "RA_OF_ASC_NODE": 67.0823,
    "ARG_OF_PERICENTER": 114.6832,
    "MEAN_ANOMALY": 245.4608,
    "EPHEMERIS_TYPE": 0,
    "CLASSIFICATION_TYPE": "U",
    "NORAD_CAT_ID": 68486,
    "ELEMENT_SET_NO": 999,
    "REV_AT_EPOCH": 273,
    "BSTAR": 9.7851897e-05,
    "MEAN_MOTION_DOT": 9.31e-06,
    "MEAN_MOTION_DDOT": 0
  },
  {
    "OBJECT_NAME": "TRANSPORTER-16 OBJECT BZ",
    "OBJECT_ID": "2026-067BZ",
    "EPOCH": "2026-04-17T14:32:52.367424",
    "MEAN_MOTION": 14.9221971,
    "ECCENTRICITY": 0.00034431,
    "INCLINATION": 97.7501,
    "RA_OF_ASC_NODE": 66.8198,
    "ARG_OF_PERICENTER": 88.5084,
    "MEAN_ANOMALY": 271.6529,
    "EPHEMERIS_TYPE": 0,
    "CLASSIFICATION_TYPE": "U",
    "NORAD_CAT_ID": 68487,
    "ELEMENT_SET_NO": 999,
    "REV_AT_EPOCH": 269,
    "BSTAR": 0.00025069506,
    "MEAN_MOTION_DOT": 2.499e-05,
    "MEAN_MOTION_DDOT": 0
  },
  {
    "OBJECT_NAME": "TRANSPORTER-16 OBJECT CA",
    "OBJECT_ID": "2026-067CA",
    "EPOCH": "2026-04-17T21:11:34.124640",
    "MEAN_MOTION": 14.91486256,
    "ECCENTRICITY": 9.577e-05,
    "INCLINATION": 97.7537,
    "RA_OF_ASC_NODE": 67.0769,
    "ARG_OF_PERICENTER": 126.3478,
    "MEAN_ANOMALY": 233.783,
    "EPHEMERIS_TYPE": 0,
    "CLASSIFICATION_TYPE": "U",
    "NORAD_CAT_ID": 68488,
    "ELEMENT_SET_NO": 999,
    "REV_AT_EPOCH": 273,
    "BSTAR": 0.00010434297,
    "MEAN_MOTION_DOT": 9.89e-06,
    "MEAN_MOTION_DDOT": 0
  },
  {
    "OBJECT_NAME": "TRANSPORTER-16 OBJECT CB",
    "OBJECT_ID": "2026-067CB",
    "EPOCH": "2026-04-17T19:38:55.515840",
    "MEAN_MOTION": 14.91271888,
    "ECCENTRICITY": 4.253e-05,
    "INCLINATION": 97.7497,
    "RA_OF_ASC_NODE": 67.0009,
    "ARG_OF_PERICENTER": 278.1909,
    "MEAN_ANOMALY": 81.9261,
    "EPHEMERIS_TYPE": 0,
    "CLASSIFICATION_TYPE": "U",
    "NORAD_CAT_ID": 68489,
    "ELEMENT_SET_NO": 999,
    "REV_AT_EPOCH": 272,
    "BSTAR": 0.00017135753,
    "MEAN_MOTION_DOT": 1.65e-05,
    "MEAN_MOTION_DDOT": 0
  },
  {
    "OBJECT_NAME": "TRANSPORTER-16 OBJECT CC",
    "OBJECT_ID": "2026-067CC",
    "EPOCH": "2026-04-17T21:14:05.317728",
    "MEAN_MOTION": 14.91348661,
    "ECCENTRICITY": 0.00014978,
    "INCLINATION": 97.7572,
    "RA_OF_ASC_NODE": 67.0814,
    "ARG_OF_PERICENTER": 179.5201,
    "MEAN_ANOMALY": 180.6019,
    "EPHEMERIS_TYPE": 0,
    "CLASSIFICATION_TYPE": "U",
    "NORAD_CAT_ID": 68490,
    "ELEMENT_SET_NO": 999,
    "REV_AT_EPOCH": 273,
    "BSTAR": 0.00013417138,
    "MEAN_MOTION_DOT": 1.283e-05,
    "MEAN_MOTION_DDOT": 0
  },
  {
    "OBJECT_NAME": "TRANSPORTER-16 OBJECT CD",
    "OBJECT_ID": "2026-067CD",
    "EPOCH": "2026-04-17T19:41:51.225792",
    "MEAN_MOTION": 14.91126889,
    "ECCENTRICITY": 0.00014396,
    "INCLINATION": 97.7524,
    "RA_OF_ASC_NODE": 67.0036,
    "ARG_OF_PERICENTER": 243.7559,
    "MEAN_ANOMALY": 116.3511,
    "EPHEMERIS_TYPE": 0,
    "CLASSIFICATION_TYPE": "U",
    "NORAD_CAT_ID": 68491,
    "ELEMENT_SET_NO": 999,
    "REV_AT_EPOCH": 272,
    "BSTAR": 0.00025680871,
    "MEAN_MOTION_DOT": 2.492e-05,
    "MEAN_MOTION_DDOT": 0
  },
  {
    "OBJECT_NAME": "TRANSPORTER-16 OBJECT CE",
    "OBJECT_ID": "2026-067CE",
    "EPOCH": "2026-04-17T21:19:37.205184",
    "MEAN_MOTION": 14.91075489,
    "ECCENTRICITY": 0.00017164,
    "INCLINATION": 97.7529,
    "RA_OF_ASC_NODE": 67.0686,
    "ARG_OF_PERICENTER": 243.8947,
    "MEAN_ANOMALY": 116.2095,
    "EPHEMERIS_TYPE": 0,
    "CLASSIFICATION_TYPE": "U",
    "NORAD_CAT_ID": 68492,
    "ELEMENT_SET_NO": 999,
    "REV_AT_EPOCH": 273,
    "BSTAR": 0.00038749154,
    "MEAN_MOTION_DOT": 3.783e-05,
    "MEAN_MOTION_DDOT": 0
  },
  {
    "OBJECT_NAME": "TRANSPORTER-16 OBJECT CF",
    "OBJECT_ID": "2026-067CF",
    "EPOCH": "2026-04-17T19:41:41.312256",
    "MEAN_MOTION": 14.91130076,
    "ECCENTRICITY": 0.00027516,
    "INCLINATION": 97.7614,
    "RA_OF_ASC_NODE": 67.0185,
    "ARG_OF_PERICENTER": 203.7445,
    "MEAN_ANOMALY": 156.3647,
    "EPHEMERIS_TYPE": 0,
    "CLASSIFICATION_TYPE": "U",
    "NORAD_CAT_ID": 68493,
    "ELEMENT_SET_NO": 999,
    "REV_AT_EPOCH": 272,
    "BSTAR": 0.00022925081,
    "MEAN_MOTION_DOT": 2.218e-05,
    "MEAN_MOTION_DDOT": 0
  }
]