TRANSPORTER-16 OBJECT BS
1 68480U 26067BS  26107.87024103  .00001884  00000+0  18877-3 0  9992
2 68480  97.7587  67.1027 0005428 103.6234 256.5591 14.92550236  2734
TORO3                   
1 68481U 26067BT  26107.81003012  .00001105  00000+0  11462-3 0  9992
2 68481  97.7625  67.0340 0003747 131.3158 228.8384 14.91971431  2724
TRANSPORTER-16 OBJECT BU
1 68482U 26067BU  26107.87025170  .00001792  00000+0  17980-3 0  9991
2 68482  97.7533  67.0943 0005085  89.9684 270.2118 14.92548157  2734
TRANSPORTER-16 OBJECT BV
1 68483U 26067BV  26107.60509354  .00000782  00000+0  82056-4 0  9999
2 68483  97.7605  66.8374 0004627 114.6887 245.4814 14.92290240  2691
TRANSPORTER-16 OBJECT BW
1 68484U 26067BW  26107.87888666  .00001651  00000+0  16914-3 0  9990
2 68484  97.7577  67.0904 0002610 125.1564 234.9899 14.91826575  2737
TRANSPORTER-16 OBJECT BX
1 68485U 26067BX  26107.81080276  .00004458  00000+0  44541-3 0  9991
2 68485  97.7541  67.0191 0002545 117.8583 242.2894 14.91980710  2721
TRANSPORTER-16 OBJECT BY
1 68486U 26067BY  26107.87950318  .00000931  00000+0  97852-4 0  9997
2 68486  97.7540  67.0823 0002119 114.6832 245.4608 14.91773743  2737
TRANSPORTER-16 OBJECT BZ
1 68487U 26067BZ  26107.60616166  .00002499  00000+0  25070-3 0  9992
2 68487  97.7501  66.8198 0003443  88.5084 271.6529 14.92219710  2694
TRANSPORTER-16 OBJECT CA
1 68488U 26067CA  26107.88303385  .00000989  00000+0  10434-3 0  9999
2 68488  97.7537  67.0769 0000957 126.3478 233.7830 14.91486256  2735
TRANSPORTER-16 OBJECT CB
1 68489U 26067CB  26107.81869810  .00001650  00000+0  17136-3 0  9995
2 68489  97.7497  67.0009 0000425 278.1909  81.9261 14.91271888  2726
TRANSPORTER-16 OBJECT CC
1 68490U 26067CC  26107.88478377  .00001283  00000+0  13417-3 0  9998
2 68490  97.7572  67.0814 0001497 179.5201 180.6019 14.91348661  2738
TRANSPORTER-16 OBJECT CD
1 68491U 26067CD  26107.82073178  .00002492  00000+0  25681-3 0  9992
2 68491  97.7524  67.0036 0001439 243.7559 116.3511 14.91126889  2726
TRANSPORTER-16 OBJECT CE
1 68492U 26067CE  26107.88862506  .00003783  00000+0  38749-3 0  9993
2 68492  97.7529  67.0686 0001716 243.8947 116.2095 14.91075489  2739
TRANSPORTER-16 OBJECT CF
1 68493U 26067CF  26107.82061704  .00002218  00000+0  22925-3 0  9990
2 68493  97.7614  67.0185 0002751 203.7445 156.3647 14.91130076  2728
